{
  "type": "FeatureCollection",
  "features": [
    {
      "type": "Feature",
      "properties": {
        "norad_id": 37961,
        "name": "COSMOS 2251 DEB",
        "group": "cosmos-2251-debris",
        "lat": 71.92855881799703,
        "lon": -167.09299476296607,
        "alt_km": 710.7612665817351,
        "timestamp": "2025-12-15T14:57:58.209426+00:00",
        "meta_object_name": "COSMOS 2251 DEB",
        "meta_object_id": "1993-036BPL",
        "meta_epoch": "2025-12-13T03:18:27.462240",
        "meta_mean_motion": 14.57979799,
        "meta_eccentricity": 0.00406759,
        "meta_inclination": 74.0407,
        "meta_ra_of_asc_node": 136.3488,
        "meta_arg_of_pericenter": 216.8805,
        "meta_mean_anomaly": 142.9561,
        "meta_ephemeris_type": 0,
        "meta_classification_type": "U",
        "meta_norad_cat_id": 37961,
        "meta_element_set_no": 999,
        "meta_rev_at_epoch": 80071,
        "meta_bstar": 0.001729191,
        "meta_mean_motion_dot": 8.011e-05,
        "meta_mean_motion_ddot": 0,
        "tle_line1": "1 37961U 93036BPL 25347.13781785  .00008011  00000+0  17292-2 0  9990",
        "tle_line2": "2 37961  74.0407 136.3488 0040675 216.8805 142.9561 14.57979799800716"
      },
      "geometry": {
        "type": "Point",
        "coordinates": [
          -167.09299476296607,
          71.92855881799703
        ]
      }
    },
    {
      "type": "Feature",
      "properties": {
        "norad_id": 37966,
        "name": "COSMOS 2251 DEB",
        "group": "cosmos-2251-debris",
        "lat": 32.18482532019499,
        "lon": -125.03136010475383,
        "alt_km": 521.9919112937632,
        "timestamp": "2025-12-15T14:57:58.209435+00:00",
        "meta_object_name": "COSMOS 2251 DEB",
        "meta_object_id": "1993-036BPR",
        "meta_epoch": "2025-12-13T08:51:38.453184",
        "meta_mean_motion": 15.12754556,
        "meta_eccentricity": 0.00088035,
        "meta_inclination": 73.9781,
        "meta_ra_of_asc_node": 229.2381,
        "meta_arg_of_pericenter": 105.8293,
        "meta_mean_anomaly": 254.3871,
        "meta_ephemeris_type": 0,
        "meta_classification_type": "U",
        "meta_norad_cat_id": 37966,
        "meta_element_set_no": 999,
        "meta_rev_at_epoch": 85352,
        "meta_bstar": 0.0051051315,
        "meta_mean_motion_dot": 0.00090719,
        "meta_mean_motion_ddot": 0,
        "tle_line1": "1 37966U 93036BPR 25347.36919506  .00090719  00000+0  51051-2 0  9991",
        "tle_line2": "2 37966  73.9781 229.2381 0008803 105.8293 254.3871 15.12754556853526"
      },
      "geometry": {
        "type": "Point",
        "coordinates": [
          -125.03136010475383,
          32.18482532019499
        ]
      }
    },
    {
      "type": "Feature",
      "properties": {
        "norad_id": 37967,
        "name": "COSMOS 2251 DEB",
        "group": "cosmos-2251-debris",
        "lat": 30.72144099249534,
        "lon": 141.84978936655236,
        "alt_km": 810.5787676032578,
        "timestamp": "2025-12-15T14:57:58.209444+00:00",
        "meta_object_name": "COSMOS 2251 DEB",
        "meta_object_id": "1993-036BPS",
        "meta_epoch": "2025-12-14T02:08:56.149728",
        "meta_mean_motion": 14.40535901,
        "meta_eccentricity": 0.0150953,
        "meta_inclination": 74.0149,
        "meta_ra_of_asc_node": 134.8827,
        "meta_arg_of_pericenter": 273.3814,
        "meta_mean_anomaly": 85.0084,
        "meta_ephemeris_type": 0,
        "meta_classification_type": "U",
        "meta_norad_cat_id": 37967,
        "meta_element_set_no": 999,
        "meta_rev_at_epoch": 64755,
        "meta_bstar": 0.0018183092,
        "meta_mean_motion_dot": 6.602e-05,
        "meta_mean_motion_ddot": 0,
        "tle_line1": "1 37967U 93036BPS 25348.08953877  .00006602  00000+0  18183-2 0  9998",
        "tle_line2": "2 37967  74.0149 134.8827 0150953 273.3814  85.0084 14.40535901647557"
      },
      "geometry": {
        "type": "Point",
        "coordinates": [
          141.84978936655236,
          30.72144099249534
        ]
      }
    },
    {
      "type": "Feature",
      "properties": {
        "norad_id": 37968,
        "name": "COSMOS 2251 DEB",
        "group": "cosmos-2251-debris",
        "lat": 73.65762670804595,
        "lon": -16.61580149420965,
        "alt_km": 534.5789480295798,
        "timestamp": "2025-12-15T14:57:58.209454+00:00",
        "meta_object_name": "COSMOS 2251 DEB",
        "meta_object_id": "1993-036BPT",
        "meta_epoch": "2025-12-13T01:47:19.904352",
        "meta_mean_motion": 15.00631404,
        "meta_eccentricity": 0.00804189,
        "meta_inclination": 74.0008,
        "meta_ra_of_asc_node": 270.4748,
        "meta_arg_of_pericenter": 26.0645,
        "meta_mean_anomaly": 334.4556,
        "meta_ephemeris_type": 0,
        "meta_classification_type": "U",
        "meta_norad_cat_id": 37968,
        "meta_element_set_no": 999,
        "meta_rev_at_epoch": 60224,
        "meta_bstar": 0.001541289,
        "meta_mean_motion_dot": 0.00020898,
        "meta_mean_motion_ddot": 0,
        "tle_line1": "1 37968U 93036BPT 25347.07453593  .00020898  00000+0  15413-2 0  9993",
        "tle_line2": "2 37968  74.0008 270.4748 0080418  26.0645 334.4556 15.00631404602248"
      },
      "geometry": {
        "type": "Point",
        "coordinates": [
          -16.61580149420965,
          73.65762670804595
        ]
      }
    },
    {
      "type": "Feature",
      "properties": {
        "norad_id": 37971,
        "name": "COSMOS 2251 DEB",
        "group": "cosmos-2251-debris",
        "lat": -4.378894816428546,
        "lon": -142.41747432470433,
        "alt_km": 686.1065049084236,
        "timestamp": "2025-12-15T14:57:58.209463+00:00",
        "meta_object_name": "COSMOS 2251 DEB",
        "meta_object_id": "1993-036BPW",
        "meta_epoch": "2025-12-14T09:56:36.830688",
        "meta_mean_motion": 14.48680607,
        "meta_eccentricity": 0.00670182,
        "meta_inclination": 73.994,
        "meta_ra_of_asc_node": 38.5941,
        "meta_arg_of_pericenter": 177.3148,
        "meta_mean_anomaly": 182.8385,
        "meta_ephemeris_type": 0,
        "meta_classification_type": "U",
        "meta_norad_cat_id": 37971,
        "meta_element_set_no": 999,
        "meta_rev_at_epoch": 60702,
        "meta_bstar": 0.0021144206,
        "meta_mean_motion_dot": 8.176e-05,
        "meta_mean_motion_ddot": 0,
        "tle_line1": "1 37971U 93036BPW 25348.41431517  .00008176  00000+0  21144-2 0  9991",
        "tle_line2": "2 37971  73.9940  38.5941 0067018 177.3148 182.8385 14.48680607607028"
      },
      "geometry": {
        "type": "Point",
        "coordinates": [
          -142.41747432470433,
          -4.378894816428546
        ]
      }
    },
    {
      "type": "Feature",
      "properties": {
        "norad_id": 37975,
        "name": "COSMOS 2251 DEB",
        "group": "cosmos-2251-debris",
        "lat": -2.1661673997491775,
        "lon": -42.20978559625254,
        "alt_km": 601.3450641639383,
        "timestamp": "2025-12-15T14:57:58.209471+00:00",
        "meta_object_name": "COSMOS 2251 DEB",
        "meta_object_id": "1993-036BQA",
        "meta_epoch": "2025-12-13T15:48:30.179232",
        "meta_mean_motion": 14.76130148,
        "meta_eccentricity": 0.00956338,
        "meta_inclination": 74.0029,
        "meta_ra_of_asc_node": 322.2658,
        "meta_arg_of_pericenter": 311.4373,
        "meta_mean_anomaly": 47.8613,
        "meta_ephemeris_type": 0,
        "meta_classification_type": "U",
        "meta_norad_cat_id": 37975,
        "meta_element_set_no": 999,
        "meta_rev_at_epoch": 69759,
        "meta_bstar": 0.0039912819,
        "meta_mean_motion_dot": 0.00029805,
        "meta_mean_motion_ddot": 0,
        "tle_line1": "1 37975U 93036BQA 25347.65868263  .00029805  00000+0  39913-2 0  9997",
        "tle_line2": "2 37975  74.0029 322.2658 0095633 311.4373  47.8613 14.76130148697591"
      },
      "geometry": {
        "type": "Point",
        "coordinates": [
          -42.20978559625254,
          -2.1661673997491775
        ]
      }
    },
    {
      "type": "Feature",
      "properties": {
        "norad_id": 37978,
        "name": "COSMOS 2251 DEB",
        "group": "cosmos-2251-debris",
        "lat": -66.1155824208103,
        "lon": 42.10264294629403,
        "alt_km": 301.8437275401657,
        "timestamp": "2025-12-15T14:57:58.209482+00:00",
        "meta_object_name": "COSMOS 2251 DEB",
        "meta_object_id": "1993-036BQD",
        "meta_epoch": "2025-11-19T05:08:53.100672",
        "meta_mean_motion": 15.61137081,
        "meta_eccentricity": 0.00148985,
        "meta_inclination": 74.0238,
        "meta_ra_of_asc_node": 142.2198,
        "meta_arg_of_pericenter": 140.9849,
        "meta_mean_anomaly": 219.2448,
        "meta_ephemeris_type": 0,
        "meta_classification_type": "U",
        "meta_norad_cat_id": 37978,
        "meta_element_set_no": 999,
        "meta_rev_at_epoch": 8032,
        "meta_bstar": 0.0043958825,
        "meta_mean_motion_dot": 0.0039117,
        "meta_mean_motion_ddot": 0,
        "tle_line1": "1 37978U 93036BQD 25323.21450348  .00391170  00000+0  43959-2 0  9999",
        "tle_line2": "2 37978  74.0238 142.2198 0014898 140.9849 219.2448 15.61137081 80328"
      },
      "geometry": {
        "type": "Point",
        "coordinates": [
          42.10264294629403,
          -66.1155824208103
        ]
      }
    }
  ]
}